{
  "type": "FeatureCollection",
  "features": [
    {
      "type": "Feature",
      "properties": {
        "norad_id": 43602,
        "name": "BEIDOU-3 M12 (C26)",
        "group": "beidou",
        "lat": -9.508962622783326,
        "lon": 14.277066656460631,
        "alt_km": 21552.128907620834,
        "timestamp": "2025-12-13T22:39:29.975186+00:00",
        "meta_object_name": "BEIDOU-3 M12 (C26)",
        "meta_object_id": "2018-067A",
        "meta_epoch": "2025-12-11T12:15:06.004224",
        "meta_mean_motion": 1.86227612,
        "meta_eccentricity": 0.00091491,
        "meta_inclination": 54.1831,
        "meta_ra_of_asc_node": 187.4051,
        "meta_arg_of_pericenter": 41.0073,
        "meta_mean_anomaly": 319.1184,
        "meta_ephemeris_type": 0,
        "meta_classification_type": "U",
        "meta_norad_cat_id": 43602,
        "meta_element_set_no": 999,
        "meta_rev_at_epoch": 4962,
        "meta_bstar": 0,
        "meta_mean_motion_dot": 7.1e-07,
        "meta_mean_motion_ddot": 0,
        "tle_line1": "1 43602U 18067A   25345.51048616  .00000071  00000+0  00000+0 0  9993",
        "tle_line2": "2 43602  54.1831 187.4051 0009149  41.0073 319.1184  1.86227612 49626"
      },
      "geometry": {
        "type": "Point",
        "coordinates": [
          14.277066656460631,
          -9.508962622783326
        ]
      }
    },
    {
      "type": "Feature",
      "properties": {
        "norad_id": 43603,
        "name": "BEIDOU-3 M11 (C25)",
        "group": "beidou",
        "lat": 52.58626858814385,
        "lon": -63.49576871608812,
        "alt_km": 21515.576603737656,
        "timestamp": "2025-12-13T22:39:29.975197+00:00",
        "meta_object_name": "BEIDOU-3 M11 (C25)",
        "meta_object_id": "2018-067B",
        "meta_epoch": "2025-12-12T04:22:00.818688",
        "meta_mean_motion": 1.86227161,
        "meta_eccentricity": 0.00055795,
        "meta_inclination": 54.1804,
        "meta_ra_of_asc_node": 187.3462,
        "meta_arg_of_pericenter": 36.7716,
        "meta_mean_anomaly": 323.3248,
        "meta_ephemeris_type": 0,
        "meta_classification_type": "U",
        "meta_norad_cat_id": 43603,
        "meta_element_set_no": 999,
        "meta_rev_at_epoch": 4966,
        "meta_bstar": 0,
        "meta_mean_motion_dot": 8e-07,
        "meta_mean_motion_ddot": 0,
        "tle_line1": "1 43603U 18067B   25346.18195392  .00000080  00000+0  00000+0 0  9992",
        "tle_line2": "2 43603  54.1804 187.3462 0005579  36.7716 323.3248  1.86227161 49661"
      },
      "geometry": {
        "type": "Point",
        "coordinates": [
          -63.49576871608812,
          52.58626858814385
        ]
      }
    },
    {
      "type": "Feature",
      "properties": {
        "norad_id": 43622,
        "name": "BEIDOU-3 M13 (C32)",
        "group": "beidou",
        "lat": 39.305652613515456,
        "lon": -144.05137052714826,
        "alt_km": 21539.372282121294,
        "timestamp": "2025-12-13T22:39:29.975208+00:00",
        "meta_object_name": "BEIDOU-3 M13 (C32)",
        "meta_object_id": "2018-072A",
        "meta_epoch": "2025-12-12T16:12:36.163584",
        "meta_mean_motion": 1.8623072,
        "meta_eccentricity": 0.0005872,
        "meta_inclination": 56.4592,
        "meta_ra_of_asc_node": 68.8222,
        "meta_arg_of_pericenter": 298.9421,
        "meta_mean_anomaly": 61.0187,
        "meta_ephemeris_type": 0,
        "meta_classification_type": "U",
        "meta_norad_cat_id": 43622,
        "meta_element_set_no": 999,
        "meta_rev_at_epoch": 4918,
        "meta_bstar": 0,
        "meta_mean_motion_dot": -7.4e-07,
        "meta_mean_motion_ddot": 0,
        "tle_line1": "1 43622U 18072A   25346.67541856 -.00000074  00000+0  00000+0 0  9997",
        "tle_line2": "2 43622  56.4592  68.8222 0005872 298.9421  61.0187  1.86230720 49189"
      },
      "geometry": {
        "type": "Point",
        "coordinates": [
          -144.05137052714826,
          39.305652613515456
        ]
      }
    },
    {
      "type": "Feature",
      "properties": {
        "norad_id": 43623,
        "name": "BEIDOU-3 M14 (C33)",
        "group": "beidou",
        "lat": -32.988694272268944,
        "lon": -85.75444837678225,
        "alt_km": 21535.948071564675,
        "timestamp": "2025-12-13T22:39:29.975219+00:00",
        "meta_object_name": "BEIDOU-3 M14 (C33)",
        "meta_object_id": "2018-072B",
        "meta_epoch": "2025-12-12T00:05:39.634080",
        "meta_mean_motion": 1.86230719,
        "meta_eccentricity": 0.00032787,
        "meta_inclination": 56.4604,
        "meta_ra_of_asc_node": 68.8385,
        "meta_arg_of_pericenter": 334.6213,
        "meta_mean_anomaly": 25.3832,
        "meta_ephemeris_type": 0,
        "meta_classification_type": "U",
        "meta_norad_cat_id": 43623,
        "meta_element_set_no": 999,
        "meta_rev_at_epoch": 4916,
        "meta_bstar": 0,
        "meta_mean_motion_dot": -6.8e-07,
        "meta_mean_motion_ddot": 0,
        "tle_line1": "1 43623U 18072B   25346.00393095 -.00000068  00000+0  00000+0 0  9998",
        "tle_line2": "2 43623  56.4604  68.8385 0003278 334.6213  25.3832  1.86230719 49165"
      },
      "geometry": {
        "type": "Point",
        "coordinates": [
          -85.75444837678225,
          -32.988694272268944
        ]
      }
    },
    {
      "type": "Feature",
      "properties": {
        "norad_id": 43647,
        "name": "BEIDOU-3 M16 (C35)",
        "group": "beidou",
        "lat": 47.29927164949396,
        "lon": 75.21847261347067,
        "alt_km": 21524.284254611677,
        "timestamp": "2025-12-13T22:39:29.975230+00:00",
        "meta_object_name": "BEIDOU-3 M16 (C35)",
        "meta_object_id": "2018-078A",
        "meta_epoch": "2025-12-12T16:46:08.548320",
        "meta_mean_motion": 1.8623232,
        "meta_eccentricity": 0.00071943,
        "meta_inclination": 54.262,
        "meta_ra_of_asc_node": 306.5225,
        "meta_arg_of_pericenter": 19.2835,
        "meta_mean_anomaly": 340.7342,
        "meta_ephemeris_type": 0,
        "meta_classification_type": "U",
        "meta_norad_cat_id": 43647,
        "meta_element_set_no": 999,
        "meta_rev_at_epoch": 4868,
        "meta_bstar": 0,
        "meta_mean_motion_dot": -9.5e-07,
        "meta_mean_motion_ddot": 0,
        "tle_line1": "1 43647U 18078A   25346.69871005 -.00000095  00000+0  00000+0 0  9997",
        "tle_line2": "2 43647  54.2620 306.5225 0007194  19.2835 340.7342  1.86232320 48683"
      },
      "geometry": {
        "type": "Point",
        "coordinates": [
          75.21847261347067,
          47.29927164949396
        ]
      }
    },
    {
      "type": "Feature",
      "properties": {
        "norad_id": 43648,
        "name": "BEIDOU-3 M15 (C34)",
        "group": "beidou",
        "lat": 22.677432607140677,
        "lon": -36.0385289666192,
        "alt_km": 21515.249223087467,
        "timestamp": "2025-12-13T22:39:29.975241+00:00",
        "meta_object_name": "BEIDOU-3 M15 (C34)",
        "meta_object_id": "2018-078B",
        "meta_epoch": "2025-12-12T19:52:13.655712",
        "meta_mean_motion": 1.86231884,
        "meta_eccentricity": 0.00036384,
        "meta_inclination": 54.2577,
        "meta_ra_of_asc_node": 306.5185,
        "meta_arg_of_pericenter": 18.0764,
        "meta_mean_anomaly": 341.9269,
        "meta_ephemeris_type": 0,
        "meta_classification_type": "U",
        "meta_norad_cat_id": 43648,
        "meta_element_set_no": 999,
        "meta_rev_at_epoch": 4870,
        "meta_bstar": 0,
        "meta_mean_motion_dot": -9.5e-07,
        "meta_mean_motion_ddot": 0,
        "tle_line1": "1 43648U 18078B   25346.82793583 -.00000095  00000+0  00000+0 0  9997",
        "tle_line2": "2 43648  54.2577 306.5185 0003638  18.0764 341.9269  1.86231884 48705"
      },
      "geometry": {
        "type": "Point",
        "coordinates": [
          -36.0385289666192,
          22.677432607140677
        ]
      }
    },
    {
      "type": "Feature",
      "properties": {
        "norad_id": 43683,
        "name": "BEIDOU-3 G1 (C59)",
        "group": "beidou",
        "lat": 2.55747840669131,
        "lon": -157.17388588247834,
        "alt_km": 35780.61509501325,
        "timestamp": "2025-12-13T22:39:29.975253+00:00",
        "meta_object_name": "BEIDOU-3 G1 (C59)",
        "meta_object_id": "2018-085A",
        "meta_epoch": "2025-12-13T05:33:17.150400",
        "meta_mean_motion": 1.00270593,
        "meta_eccentricity": 0.00017008,
        "meta_inclination": 2.6092,
        "meta_ra_of_asc_node": 102.9591,
        "meta_arg_of_pericenter": 60.8617,
        "meta_mean_anomaly": 141.7349,
        "meta_ephemeris_type": 0,
        "meta_classification_type": "U",
        "meta_norad_cat_id": 43683,
        "meta_element_set_no": 999,
        "meta_rev_at_epoch": 2619,
        "meta_bstar": 0,
        "meta_mean_motion_dot": -2.63e-06,
        "meta_mean_motion_ddot": 0,
        "tle_line1": "1 43683U 18085A   25347.23144850 -.00000263  00000+0  00000+0 0  9994",
        "tle_line2": "2 43683   2.6092 102.9591 0001700  60.8617 141.7349  1.00270593 26192"
      },
      "geometry": {
        "type": "Point",
        "coordinates": [
          -157.17388588247834,
          2.55747840669131
        ]
      }
    }
  ]
}